ONEWEB-0570             
1 55149U 23004K   23270.25002315 -.00752769  00000+0 -28221+0 0  9996
2 55149  86.8780 177.8128 0003491  70.4303  10.8692 14.34684672 38328
ONEWEB-0571             
1 55150U 23004L   23270.25002315 -.00786519  00000+0 -28395+0 0  9990
2 55150  86.8731 177.8813 0004529  65.9868 178.6613 14.36718790 38322
ONEWEB-0572             
1 55151U 23004M   23269.83076674 -.00000078  00000+0 -23309-3 0  9995
2 55151  87.9247 203.4496 0001423  73.1242 287.0045 13.17648727 36532
ONEWEB-0573             
1 55152U 23004N   23269.91667824 -.00791847  00000+0 -29187+0 0  9995
2 55152  86.8635 177.9933 0004690  66.9642 300.9630 14.35691829  5685
ONEWEB-0588             
1 55153U 23004P   23270.25002315 -.00787438  00000+0 -28846+0 0  9995
2 55153  86.8668 177.9113 0007522  67.9435  70.4320 14.35976296 38315
ONEWEB-0598             
1 55154U 23004Q   23269.85919665  .00000452  00000+0  12385-2 0  9991
2 55154  87.8953 218.6185 0002140  54.9828 305.1501 13.11416301 35572
ONEWEB-0599             
1 55155U 23004R   23269.86874099  .00000005  00000+0 -19386-4 0  9999
2 55155  87.9247 203.4168 0002201  75.6244 284.5132 13.17645666 36545
ONEWEB-0614             
1 55156U 23004S   23269.85495370  .00000519  00000+0  14292-2 0  9998
2 55156  87.8982 218.5978 0001801  92.2406 267.8928 13.11413984 35510
